<?xml version="1.0" encoding="UTF-8"?>
<ndm xmlns:xsi="http://www.w3.org/2001/XMLSchema-instance" xsi:noNamespaceSchemaLocation="https://sanaregistry.org/r/ndmxml_unqualified/ndmxml-2.0.0-master-2.0.xsd">
<omm id="CCSDS_OMM_VERS" version="2.0">
<header><CREATION_DATE/><ORIGINATOR/></header><body><segment><metadata><OBJECT_NAME>IRIDIUM 119</OBJECT_NAME><OBJECT_ID>2017-061E</OBJECT_ID><CENTER_NAME>EARTH</CENTER_NAME><REF_FRAME>TEME</REF_FRAME><TIME_SYSTEM>UTC</TIME_SYSTEM><MEAN_ELEMENT_THEORY>SGP4</MEAN_ELEMENT_THEORY></metadata><data><meanElements><EPOCH>2024-01-24T12:12:19.309248</EPOCH><MEAN_MOTION>14.34219492</MEAN_MOTION><ECCENTRICITY>.0002257</ECCENTRICITY><INCLINATION>86.3955</INCLINATION><RA_OF_ASC_NODE>30.7654</RA_OF_ASC_NODE><ARG_OF_PERICENTER>84.4429</ARG_OF_PERICENTER><MEAN_ANOMALY>275.7024</MEAN_ANOMALY></meanElements><tleParameters><EPHEMERIS_TYPE>0</EPHEMERIS_TYPE><CLASSIFICATION_TYPE>U</CLASSIFICATION_TYPE><NORAD_CAT_ID>42959</NORAD_CAT_ID><ELEMENT_SET_NO>999</ELEMENT_SET_NO><REV_AT_EPOCH>32944</REV_AT_EPOCH><BSTAR>.1043E-3</BSTAR><MEAN_MOTION_DOT>.312E-5</MEAN_MOTION_DOT><MEAN_MOTION_DDOT>0</MEAN_MOTION_DDOT></tleParameters></data></segment></body></omm>
<omm id="CCSDS_OMM_VERS" version="2.0">
<header><CREATION_DATE/><ORIGINATOR/></header><body><segment><metadata><OBJECT_NAME>IRIDIUM 107</OBJECT_NAME><OBJECT_ID>2017-061F</OBJECT_ID><CENTER_NAME>EARTH</CENTER_NAME><REF_FRAME>TEME</REF_FRAME><TIME_SYSTEM>UTC</TIME_SYSTEM><MEAN_ELEMENT_THEORY>SGP4</MEAN_ELEMENT_THEORY></metadata><data><meanElements><EPOCH>2024-01-24T12:39:41.326560</EPOCH><MEAN_MOTION>14.34215483</MEAN_MOTION><ECCENTRICITY>.0001833</ECCENTRICITY><INCLINATION>86.3952</INCLINATION><RA_OF_ASC_NODE>30.7732</RA_OF_ASC_NODE><ARG_OF_PERICENTER>83.9508</ARG_OF_PERICENTER><MEAN_ANOMALY>276.1896</MEAN_ANOMALY></meanElements><tleParameters><EPHEMERIS_TYPE>0</EPHEMERIS_TYPE><CLASSIFICATION_TYPE>U</CLASSIFICATION_TYPE><NORAD_CAT_ID>42960</NORAD_CAT_ID><ELEMENT_SET_NO>999</ELEMENT_SET_NO><REV_AT_EPOCH>32945</REV_AT_EPOCH><BSTAR>-.12957E-4</BSTAR><MEAN_MOTION_DOT>-.17E-6</MEAN_MOTION_DOT><MEAN_MOTION_DDOT>0</MEAN_MOTION_DDOT></tleParameters></data></segment></body></omm>
<omm id="CCSDS_OMM_VERS" version="2.0">
<header><CREATION_DATE/><ORIGINATOR/></header><body><segment><metadata><OBJECT_NAME>IRIDIUM 132</OBJECT_NAME><OBJECT_ID>2017-061G</OBJECT_ID><CENTER_NAME>EARTH</CENTER_NAME><REF_FRAME>TEME</REF_FRAME><TIME_SYSTEM>UTC</TIME_SYSTEM><MEAN_ELEMENT_THEORY>SGP4</MEAN_ELEMENT_THEORY></metadata><data><meanElements><EPOCH>2024-01-24T12:48:50.658624</EPOCH><MEAN_MOTION>14.34217886</MEAN_MOTION><ECCENTRICITY>.000194</ECCENTRICITY><INCLINATION>86.3955</INCLINATION><RA_OF_ASC_NODE>30.7563</RA_OF_ASC_NODE><ARG_OF_PERICENTER>85.9558</ARG_OF_PERICENTER><MEAN_ANOMALY>274.1860</MEAN_ANOMALY></meanElements><tleParameters><EPHEMERIS_TYPE>0</EPHEMERIS_TYPE><CLASSIFICATION_TYPE>U</CLASSIFICATION_TYPE><NORAD_CAT_ID>42961</NORAD_CAT_ID><ELEMENT_SET_NO>999</ELEMENT_SET_NO><REV_AT_EPOCH>32945</REV_AT_EPOCH><BSTAR>.34542E-4</BSTAR><MEAN_MOTION_DOT>.117E-5</MEAN_MOTION_DOT><MEAN_MOTION_DDOT>0</MEAN_MOTION_DDOT></tleParameters></data></segment></body></omm>
<omm id="CCSDS_OMM_VERS" version="2.0">
<header><CREATION_DATE/><ORIGINATOR/></header><body><segment><metadata><OBJECT_NAME>IRIDIUM 136</OBJECT_NAME><OBJECT_ID>2017-061H</OBJECT_ID><CENTER_NAME>EARTH</CENTER_NAME><REF_FRAME>TEME</REF_FRAME><TIME_SYSTEM>UTC</TIME_SYSTEM><MEAN_ELEMENT_THEORY>SGP4</MEAN_ELEMENT_THEORY></metadata><data><meanElements><EPOCH>2024-01-24T13:34:31.008288</EPOCH><MEAN_MOTION>14.34219766</MEAN_MOTION><ECCENTRICITY>.0002358</ECCENTRICITY><INCLINATION>86.3955</INCLINATION><RA_OF_ASC_NODE>30.7454</RA_OF_ASC_NODE><ARG_OF_PERICENTER>84.9182</ARG_OF_PERICENTER><MEAN_ANOMALY>275.2283</MEAN_ANOMALY></meanElements><tleParameters><EPHEMERIS_TYPE>0</EPHEMERIS_TYPE><CLASSIFICATION_TYPE>U</CLASSIFICATION_TYPE><NORAD_CAT_ID>42962</NORAD_CAT_ID><ELEMENT_SET_NO>999</ELEMENT_SET_NO><REV_AT_EPOCH>32947</REV_AT_EPOCH><BSTAR>.9909E-4</BSTAR><MEAN_MOTION_DOT>.297E-5</MEAN_MOTION_DOT><MEAN_MOTION_DDOT>0</MEAN_MOTION_DDOT></tleParameters></data></segment></body></omm>
<omm id="CCSDS_OMM_VERS" version="2.0">
<header><CREATION_DATE/><ORIGINATOR/></header><body><segment><metadata><OBJECT_NAME>IRIDIUM 139</OBJECT_NAME><OBJECT_ID>2017-061J</OBJECT_ID><CENTER_NAME>EARTH</CENTER_NAME><REF_FRAME>TEME</REF_FRAME><TIME_SYSTEM>UTC</TIME_SYSTEM><MEAN_ELEMENT_THEORY>SGP4</MEAN_ELEMENT_THEORY></metadata><data><meanElements><EPOCH>2024-01-24T12:03:10.902528</EPOCH><MEAN_MOTION>14.34219475</MEAN_MOTION><ECCENTRICITY>.0001983</ECCENTRICITY><INCLINATION>86.3956</INCLINATION><RA_OF_ASC_NODE>30.8200</RA_OF_ASC_NODE><ARG_OF_PERICENTER>86.7949</ARG_OF_PERICENTER><MEAN_ANOMALY>273.3473</MEAN_ANOMALY></meanElements><tleParameters><EPHEMERIS_TYPE>0</EPHEMERIS_TYPE><CLASSIFICATION_TYPE>U</CLASSIFICATION_TYPE><NORAD_CAT_ID>42963</NORAD_CAT_ID><ELEMENT_SET_NO>999</ELEMENT_SET_NO><REV_AT_EPOCH>32947</REV_AT_EPOCH><BSTAR>.10517E-3</BSTAR><MEAN_MOTION_DOT>.314E-5</MEAN_MOTION_DOT><MEAN_MOTION_DDOT>0</MEAN_MOTION_DDOT></tleParameters></data></segment></body></omm>
<omm id="CCSDS_OMM_VERS" version="2.0">
<header><CREATION_DATE/><ORIGINATOR/></header><body><segment><metadata><OBJECT_NAME>IRIDIUM 125</OBJECT_NAME><OBJECT_ID>2017-061K</OBJECT_ID><CENTER_NAME>EARTH</CENTER_NAME><REF_FRAME>TEME</REF_FRAME><TIME_SYSTEM>UTC</TIME_SYSTEM><MEAN_ELEMENT_THEORY>SGP4</MEAN_ELEMENT_THEORY></metadata><data><meanElements><EPOCH>2024-01-24T11:44:53.516256</EPOCH><MEAN_MOTION>14.34215242</MEAN_MOTION><ECCENTRICITY>.0002186</ECCENTRICITY><INCLINATION>86.3959</INCLINATION><RA_OF_ASC_NODE>30.8701</RA_OF_ASC_NODE><ARG_OF_PERICENTER>78.5158</ARG_OF_PERICENTER><MEAN_ANOMALY>281.6284</MEAN_ANOMALY></meanElements><tleParameters><EPHEMERIS_TYPE>0</EPHEMERIS_TYPE><CLASSIFICATION_TYPE>U</CLASSIFICATION_TYPE><NORAD_CAT_ID>42964</NORAD_CAT_ID><ELEMENT_SET_NO>999</ELEMENT_SET_NO><REV_AT_EPOCH>32948</REV_AT_EPOCH><BSTAR>.80809E-5</BSTAR><MEAN_MOTION_DOT>.42E-6</MEAN_MOTION_DOT><MEAN_MOTION_DDOT>0</MEAN_MOTION_DDOT></tleParameters></data></segment></body></omm>
<omm id="CCSDS_OMM_VERS" version="2.0">
<header><CREATION_DATE/><ORIGINATOR/></header><body><segment><metadata><OBJECT_NAME>IRIDIUM 135</OBJECT_NAME><OBJECT_ID>2017-083A</OBJECT_ID><CENTER_NAME>EARTH</CENTER_NAME><REF_FRAME>TEME</REF_FRAME><TIME_SYSTEM>UTC</TIME_SYSTEM><MEAN_ELEMENT_THEORY>SGP4</MEAN_ELEMENT_THEORY></metadata><data><meanElements><EPOCH>2024-01-24T07:46:42.713472</EPOCH><MEAN_MOTION>14.34221116</MEAN_MOTION><ECCENTRICITY>.0002029</ECCENTRICITY><INCLINATION>86.3995</INCLINATION><RA_OF_ASC_NODE>327.6517</RA_OF_ASC_NODE><ARG_OF_PERICENTER>93.8377</ARG_OF_PERICENTER><MEAN_ANOMALY>266.3051</MEAN_ANOMALY></meanElements><tleParameters><EPHEMERIS_TYPE>0</EPHEMERIS_TYPE><CLASSIFICATION_TYPE>U</CLASSIFICATION_TYPE><NORAD_CAT_ID>43070</NORAD_CAT_ID><ELEMENT_SET_NO>999</ELEMENT_SET_NO><REV_AT_EPOCH>31875</REV_AT_EPOCH><BSTAR>.15556E-3</BSTAR><MEAN_MOTION_DOT>.455E-5</MEAN_MOTION_DOT><MEAN_MOTION_DDOT>0</MEAN_MOTION_DDOT></tleParameters></data></segment></body></omm>
<omm id="CCSDS_OMM_VERS" version="2.0">
<header><CREATION_DATE/><ORIGINATOR/></header><body><segment><metadata><OBJECT_NAME>IRIDIUM 138</OBJECT_NAME><OBJECT_ID>2017-083B</OBJECT_ID><CENTER_NAME>EARTH</CENTER_NAME><REF_FRAME>TEME</REF_FRAME><TIME_SYSTEM>UTC</TIME_SYSTEM><MEAN_ELEMENT_THEORY>SGP4</MEAN_ELEMENT_THEORY></metadata><data><meanElements><EPOCH>2024-01-24T20:06:31.129920</EPOCH><MEAN_MOTION>14.34217478</MEAN_MOTION><ECCENTRICITY>.0002185</ECCENTRICITY><INCLINATION>86.3986</INCLINATION><RA_OF_ASC_NODE>327.1726</RA_OF_ASC_NODE><ARG_OF_PERICENTER>78.6153</ARG_OF_PERICENTER><MEAN_ANOMALY>281.5288</MEAN_ANOMALY></meanElements><tleParameters><EPHEMERIS_TYPE>0</EPHEMERIS_TYPE><CLASSIFICATION_TYPE>U</CLASSIFICATION_TYPE><NORAD_CAT_ID>43071</NORAD_CAT_ID><ELEMENT_SET_NO>999</ELEMENT_SET_NO><REV_AT_EPOCH>31881</REV_AT_EPOCH><BSTAR>.31049E-4</BSTAR><MEAN_MOTION_DOT>.107E-5</MEAN_MOTION_DOT><MEAN_MOTION_DDOT>0</MEAN_MOTION_DDOT></tleParameters></data></segment></body></omm>

</ndm>
