IRIDIUM 119             
1 42959U 17061E   24024.50855682  .00000312  00000+0  10430-3 0  9991
2 42959  86.3955  30.7654 0002257  84.4429 275.7024 14.34219492329447
IRIDIUM 107             
1 42960U 17061F   24024.52756165 -.00000017  00000+0 -12957-4 0  9992
2 42960  86.3952  30.7732 0001833  83.9508 276.1896 14.34215483329453
IRIDIUM 132             
1 42961U 17061G   24024.53391966  .00000117  00000+0  34542-4 0  9991
2 42961  86.3955  30.7563 0001940  85.9558 274.1860 14.34217886329453
IRIDIUM 136             
1 42962U 17061H   24024.56563667  .00000297  00000+0  99090-4 0  9992
2 42962  86.3955  30.7454 0002358  84.9182 275.2283 14.34219766329471
IRIDIUM 139             
1 42963U 17061J   24024.50220952  .00000314  00000+0  10517-3 0  9990
2 42963  86.3956  30.8200 0001983  86.7949 273.3473 14.34219475329474
IRIDIUM 125             
1 42964U 17061K   24024.48950829  .00000042  00000+0  80809-5 0  9992
2 42964  86.3959  30.8701 0002186  78.5158 281.6284 14.34215242329482
IRIDIUM 135             
1 43070U 17083A   24024.32410548  .00000455  00000+0  15556-3 0  9990
2 43070  86.3995 327.6517 0002029  93.8377 266.3051 14.34221116318759
IRIDIUM 138             
1 43071U 17083B   24024.83786030  .00000107  00000+0  31049-4 0  9999
2 43071  86.3986 327.1726 0002185  78.6153 281.5288 14.34217478318817
